sat07850
1 07850U 72058W   20046.86122463  .00000213  00000-0  66272-4 0  9999
2 07850  98.0576  55.8906 0206057 292.2813  65.6642 14.39253386285858
